{"type": "FeatureCollection", "features": [ {"type": "Feature", "properties": {"norad_id": 66613, "name": "STARLINK-36037", "group": "last-30-days", "lat": -40.32408731116187, "lon": 102.21752020515544, "alt_km": 390.8766407625726, "timestamp": "2025-12-08T15:42:48.537526+00:00", "meta": {"OBJECT_NAME": "STARLINK-36037", "OBJECT_ID": "2025-270AB", "EPOCH": "2025-12-08T06:00:02.999808", "MEAN_MOTION": 15.61397149, "ECCENTRICITY": 0.00013523, "INCLINATION": 42.999, "RA_OF_ASC_NODE": 218.9909, "ARG_OF_PERICENTER": 275.7955, "MEAN_ANOMALY": 219.6109, "EPHEMERIS_TYPE": 0, "CLASSIFICATION_TYPE": "U", "NORAD_CAT_ID": 66613, "ELEMENT_SET_NO": 999, "REV_AT_EPOCH": 367, "BSTAR": -0.025942064, "MEAN_MOTION_DOT": -0.01997712, "MEAN_MOTION_DDOT": 0}, "tle": {"line1": "1 66613U 25270AB  25342.25003472 -.01997712  00000+0 -25942-1 0  9997", "line2": "2 66613  42.9990 218.9909 0001352 275.7955 219.6109 15.61397149  3676"}}, "geometry": {"type": "Point", "coordinates": [102.21752020515544, -40.32408731116187]}}, {"type": "Feature", "properties": {"norad_id": 66614, "name": "STARLINK-36040", "group": "last-30-days", "lat": -41.299125038562366, "lon": 107.10152977926528, "alt_km": 390.88326089802285, "timestamp": "2025-12-08T15:42:48.537536+00:00", "meta": {"OBJECT_NAME": "STARLINK-36040", "OBJECT_ID": "2025-270AC", "EPOCH": "2025-12-08T06:00:02.999808", "MEAN_MOTION": 15.61398099, "ECCENTRICITY": 0.00013335, "INCLINATION": 42.9991, "RA_OF_ASC_NODE": 218.9811, "ARG_OF_PERICENTER": 274.9115, "MEAN_ANOMALY": 224.326, "EPHEMERIS_TYPE": 0, "CLASSIFICATION_TYPE": "U", "NORAD_CAT_ID": 66614, "ELEMENT_SET_NO": 999, "REV_AT_EPOCH": 352, "BSTAR": -0.025915296, "MEAN_MOTION_DOT": -0.01995956, "MEAN_MOTION_DDOT": 0}, "tle": {"line1": "1 66614U 25270AC  25342.25003472 -.01995956  00000+0 -25915-1 0  9996", "line2": "2 66614  42.9991 218.9811 0001333 274.9115 224.3260 15.61398099  3528"}}, "geometry": {"type": "Point", "coordinates": [107.10152977926528, -41.299125038562366]}}, {"type": "Feature", "properties": {"norad_id": 66615, "name": "STARLINK-35988", "group": "last-30-days", "lat": -40.837367999299616, "lon": 104.64132302196556, "alt_km": 390.8552044068929, "timestamp": "2025-12-08T15:42:48.537546+00:00", "meta": {"OBJECT_NAME": "STARLINK-35988", "OBJECT_ID": "2025-270AD", "EPOCH": "2025-12-08T06:00:02.999808", "MEAN_MOTION": 15.61396311, "ECCENTRICITY": 0.00013723, "INCLINATION": 42.999, "RA_OF_ASC_NODE": 218.986, "ARG_OF_PERICENTER": 274.5655, "MEAN_ANOMALY": 222.7572, "EPHEMERIS_TYPE": 0, "CLASSIFICATION_TYPE": "U", "NORAD_CAT_ID": 66615, "ELEMENT_SET_NO": 999, "REV_AT_EPOCH": 352, "BSTAR": -0.025912552, "MEAN_MOTION_DOT": -0.01995677, "MEAN_MOTION_DDOT": 0}, "tle": {"line1": "1 66615U 25270AD  25342.25003472 -.01995677  00000+0 -25913-1 0  9995", "line2": "2 66615  42.9990 218.9860 0001372 274.5655 222.7572 15.61396311  3523"}}, "geometry": {"type": "Point", "coordinates": [104.64132302196556, -40.837367999299616]}}, {"type": "Feature", "properties": {"norad_id": 66616, "name": "STARLINK-35391", "group": "last-30-days", "lat": -41.70758078168154, "lon": 109.5959324615587, "alt_km": 390.9169302127475, "timestamp": "2025-12-08T15:42:48.537557+00:00", "meta": {"OBJECT_NAME": "STARLINK-35391", "OBJECT_ID": "2025-270AE", "EPOCH": "2025-12-08T06:00:02.999808", "MEAN_MOTION": 15.61396875, "ECCENTRICITY": 0.00012928, "INCLINATION": 42.9991, "RA_OF_ASC_NODE": 218.9766, "ARG_OF_PERICENTER": 274.5493, "MEAN_ANOMALY": 226.6082, "EPHEMERIS_TYPE": 0, "CLASSIFICATION_TYPE": "U", "NORAD_CAT_ID": 66616, "ELEMENT_SET_NO": 999, "REV_AT_EPOCH": 378, "BSTAR": -0.02593138, "MEAN_MOTION_DOT": -0.01996928, "MEAN_MOTION_DDOT": 0}, "tle": {"line1": "1 66616U 25270AE  25342.25003472 -.01996928  00000+0 -25931-1 0  9996", "line2": "2 66616  42.9991 218.9766 0001292 274.5493 226.6082 15.61396875  3783"}}, "geometry": {"type": "Point", "coordinates": [109.5959324615587, -41.70758078168154]}}, {"type": "Feature", "properties": {"norad_id": 66617, "name": "STARLINK-35940", "group": "last-30-days", "lat": -9.392469530787157, "lon": 34.167814504450746, "alt_km": 367.8160547606385, "timestamp": "2025-12-08T15:42:48.537567+00:00", "meta": {"OBJECT_NAME": "STARLINK-35940", "OBJECT_ID": "2025-271A", "EPOCH": "2025-12-08T06:00:02.999808", "MEAN_MOTION": 15.69406827, "ECCENTRICITY": 0.00010053, "INCLINATION": 53.1596, "RA_OF_ASC_NODE": 209.0358, "ARG_OF_PERICENTER": 64.4394, "MEAN_ANOMALY": 0.7124, "EPHEMERIS_TYPE": 0, "CLASSIFICATION_TYPE": "U", "NORAD_CAT_ID": 66617, "ELEMENT_SET_NO": 999, "REV_AT_EPOCH": 352, "BSTAR": -0.018641993, "MEAN_MOTION_DOT": -0.01970418, "MEAN_MOTION_DDOT": 0}, "tle": {"line1": "1 66617U 25271A   25342.25003472 -.01970418  00000+0 -18642-1 0  9995", "line2": "2 66617  53.1596 209.0358 0001005  64.4394   0.7124 15.69406827  3522"}}, "geometry": {"type": "Point", "coordinates": [34.167814504450746, -9.392469530787157]}}, {"type": "Feature", "properties": {"norad_id": 66618, "name": "STARLINK-35970", "group": "last-30-days", "lat": -46.492836706477576, "lon": 79.10562547317419, "alt_km": 370.83367605112926, "timestamp": "2025-12-08T15:42:48.537580+00:00", "meta": {"OBJECT_NAME": "STARLINK-35970", "OBJECT_ID": "2025-271B", "EPOCH": "2025-12-08T06:00:02.999808", "MEAN_MOTION": 15.69407221, "ECCENTRICITY": 9.569e-05, "INCLINATION": 53.159, "RA_OF_ASC_NODE": 208.9233, "ARG_OF_PERICENTER": 87.0445, "MEAN_ANOMALY": 31.4272, "EPHEMERIS_TYPE": 0, "CLASSIFICATION_TYPE": "U", "NORAD_CAT_ID": 66618, "ELEMENT_SET_NO": 999, "REV_AT_EPOCH": 352, "BSTAR": -0.018619115, "MEAN_MOTION_DOT": -0.01968278, "MEAN_MOTION_DDOT": 0}, "tle": {"line1": "1 66618U 25271B   25342.25003472 -.01968278  00000+0 -18619-1 0  9991", "line2": "2 66618  53.1590 208.9233 0000956  87.0445  31.4272 15.69407221  3523"}}, "geometry": {"type": "Point", "coordinates": [79.10562547317419, -46.492836706477576]}}, {"type": "Feature", "properties": {"norad_id": 66619, "name": "STARLINK-35951", "group": "last-30-days", "lat": -15.437922787083641, "lon": 38.97605467650082, "alt_km": 368.5543687656955, "timestamp": "2025-12-08T15:42:48.537594+00:00", "meta": {"OBJECT_NAME": "STARLINK-35951", "OBJECT_ID": "2025-271C", "EPOCH": "2025-12-08T06:00:02.999808", "MEAN_MOTION": 15.69408941, "ECCENTRICITY": 9.109e-05, "INCLINATION": 53.1593, "RA_OF_ASC_NODE": 209.0186, "ARG_OF_PERICENTER": 87.1111, "MEAN_ANOMALY": 345.7056, "EPHEMERIS_TYPE": 0, "CLASSIFICATION_TYPE": "U", "NORAD_CAT_ID": 66619, "ELEMENT_SET_NO": 999, "REV_AT_EPOCH": 352, "BSTAR": -0.018646544, "MEAN_MOTION_DOT": -0.01970926, "MEAN_MOTION_DDOT": 0}, "tle": {"line1": "1 66619U 25271C   25342.25003472 -.01970926  00000+0 -18647-1 0  9996", "line2": "2 66619  53.1593 209.0186 0000910  87.1111 345.7056 15.69408941  3528"}}, "geometry": {"type": "Point", "coordinates": [38.97605467650082, -15.437922787083641]}}, {"type": "Feature", "properties": {"norad_id": 66620, "name": "STARLINK-35936", "group": "last-30-days", "lat": -10.909167542778109, "lon": 35.3479874865113, "alt_km": 368.05679945048723, "timestamp": "2025-12-08T15:42:48.537605+00:00", "meta": {"OBJECT_NAME": "STARLINK-35936", "OBJECT_ID": "2025-271D", "EPOCH": "2025-12-08T06:00:02.999808", "MEAN_MOTION": 15.69408039, "ECCENTRICITY": 7.752e-05, "INCLINATION": 53.1593, "RA_OF_ASC_NODE": 209.0315, "ARG_OF_PERICENTER": 81.2096, "MEAN_ANOMALY": 345.8554, "EPHEMERIS_TYPE": 0, "CLASSIFICATION_TYPE": "U", "NORAD_CAT_ID": 66620, "ELEMENT_SET_NO": 999, "REV_AT_EPOCH": 352, "BSTAR": -0.018622253, "MEAN_MOTION_DOT": -0.01968497, "MEAN_MOTION_DDOT": 0}, "tle": {"line1": "1 66620U 25271D   25342.25003472 -.01968497  00000+0 -18622-1 0  9991", "line2": "2 66620  53.1593 209.0315 0000775  81.2096 345.8554 15.69408039  3522"}}, "geometry": {"type": "Point", "coordinates": [35.3479874865113, -10.909167542778109]}}, {"type": "Feature", "properties": {"norad_id": 66621, "name": "STARLINK-35847", "group": "last-30-days", "lat": -48.135169780217225, "lon": 83.71074339333538, "alt_km": 370.87741399790684, "timestamp": "2025-12-08T15:42:48.537615+00:00", "meta": {"OBJECT_NAME": "STARLINK-35847", "OBJECT_ID": "2025-271E", "EPOCH": "2025-12-08T06:00:02.999808", "MEAN_MOTION": 15.69407911, "ECCENTRICITY": 9.58e-05, "INCLINATION": 53.1593, "RA_OF_ASC_NODE": 208.9157, "ARG_OF_PERICENTER": 93.6879, "MEAN_ANOMALY": 28.3189, "EPHEMERIS_TYPE": 0, "CLASSIFICATION_TYPE": "U", "NORAD_CAT_ID": 66621, "ELEMENT_SET_NO": 999, "REV_AT_EPOCH": 352, "BSTAR": -0.018604749, "MEAN_MOTION_DOT": -0.01966988, "MEAN_MOTION_DDOT": 0}, "tle": {"line1": "1 66621U 25271E   25342.25003472 -.01966988  00000+0 -18605-1 0  9996", "line2": "2 66621  53.1593 208.9157 0000958  93.6879  28.3189 15.69407911  3529"}}, "geometry": {"type": "Point", "coordinates": [83.71074339333538, -48.135169780217225]}}, {"type": "Feature", "properties": {"norad_id": 66622, "name": "STARLINK-35950", "group": "last-30-days", "lat": -16.9333486205744, "lon": 40.21893691476593, "alt_km": 368.73453729983976, "timestamp": "2025-12-08T15:42:48.537625+00:00", "meta": {"OBJECT_NAME": "STARLINK-35950", "OBJECT_ID": "2025-271F", "EPOCH": "2025-12-08T06:00:02.999808", "MEAN_MOTION": 15.69409847, "ECCENTRICITY": 9.022e-05, "INCLINATION": 53.1594, "RA_OF_ASC_NODE": 209.0159, "ARG_OF_PERICENTER": 85.3766, "MEAN_ANOMALY": 349.3553, "EPHEMERIS_TYPE": 0, "CLASSIFICATION_TYPE": "U", "NORAD_CAT_ID": 66622, "ELEMENT_SET_NO": 999, "REV_AT_EPOCH": 352, "BSTAR": -0.018645629, "MEAN_MOTION_DOT": -0.019709, "MEAN_MOTION_DDOT": 0}, "tle": {"line1": "1 66622U 25271F   25342.25003472 -.01970900  00000+0 -18646-1 0  9991", "line2": "2 66622  53.1594 209.0159 0000902  85.3766 349.3553 15.69409847  3528"}}, "geometry": {"type": "Point", "coordinates": [40.21893691476593, -16.9333486205744]}}]}